NORAD_CAT_ID,OBJECT_NAME,OBJECT_TYPE,EPOCH,MEAN_MOTION,ECCENTRICITY,INCLINATION,RA_OF_ASC_NODE,ARG_OF_PERICENTER,MEAN_ANOMALY,BSTAR,MEAN_MOTION_DOT,MEAN_MOTION_DDOT,TLE_LINE0,TLE_LINE1,TLE_LINE2,SEMIMAJOR_AXIS,PERIOD,APOGEE,PERIGEE,DECAYED
53935.0,STARLINK-5000,PAYLOAD,2023-03-02 18:19:15,15.07980258,0.000137,53.2203,200.1557,99.9796,260.135,-0.0063617,-0.00097838,0.0,0 STARLINK-5000,1 53935U 22119BB  23061.76337677 -.00097838  00000-0 -63617-2 0  9990,2 53935  53.2203 200.1557 0001370  99.9796 260.1350 15.07980258 25258,6920.51,95.492,543.323,541.426,0.0
53935.0,STARLINK-5000,PAYLOAD,2023-03-03 10:00:00,15.0718744,0.0001554,53.2173,197.2285,102.7762,205.7701,0.0020932,0.00031707,0.0,0 STARLINK-5000,1 53935U 22119BB  23062.41667824  .00031707  00000-0  20932-2 0  9997,2 53935  53.2173 197.2285 0001554 102.7762 205.7701 15.07187440 25356,6922.936,95.542,545.877,543.725,0.0
53935.0,STARLINK-5000,PAYLOAD,2023-03-03 14:00:01,15.07225763,0.0001476,53.2171,196.4833,97.653,35.6988,-0.0036589,-0.00055577,0.0,0 STARLINK-5000,1 53935U 22119BB  23062.58334491 -.00055577  00000-0 -36589-2 0  9994,2 53935  53.2171 196.4833 0001476  97.6530  35.6988 15.07225763  1309,6922.819,95.54,545.706,543.662,0.0
53935.0,STARLINK-5000,PAYLOAD,2023-03-03 22:00:00,15.07179311,0.0001218,53.2171,194.991,88.7232,54.2618,0.0010591,0.00015863,0.0,0 STARLINK-5000,1 53935U 22119BB  23062.91667824  .00015863  00000-0  10591-2 0  9997,2 53935  53.2171 194.9910 0001218  88.7232  54.2618 15.07179311 25425,6922.961,95.543,545.669,543.983,0.0
53935.0,STARLINK-5000,PAYLOAD,2023-03-04 14:00:01,15.07255937,0.0001329,53.2177,192.0059,77.3793,84.8043,-0.0066051,-0.00099567,0.0,0 STARLINK-5000,1 53935U 22119BB  23063.58334491 -.00099567  00000-0 -66051-2 0  9999,2 53935  53.2177 192.0059 0001329  77.3793  84.8043 15.07255937  1304,6922.726,95.538,545.512,543.671,0.0
53935.0,STARLINK-5000,PAYLOAD,2023-03-04 22:00:00,15.07176305,0.0001368,53.2178,190.5135,63.2755,108.5629,0.0023782,0.00036074,0.0,0 STARLINK-5000,1 53935U 22119BB  23063.91667824  .00036074  00000-0  23782-2 0  9991,2 53935  53.2178 190.5135 0001368  63.2755 108.5629 15.07176305 25578,6922.97,95.543,545.782,543.888,0.0
53935.0,STARLINK-5000,PAYLOAD,2023-03-05 14:00:01,15.07293807,0.000139,53.2184,187.5285,73.164,117.9244,-0.0090293,-0.00135465,0.0,0 STARLINK-5000,1 53935U 22119BB  23064.58334491 -.00135465  00000-0 -90293-2 0  9993,2 53935  53.2184 187.5285 0001390  73.1640 117.9244 15.07293807  1304,6922.611,95.535,545.438,543.513,0.0
53935.0,STARLINK-5000,PAYLOAD,2023-03-05 22:00:00,15.07192519,0.0001262,53.2185,186.0358,80.519,120.2618,0.00065906,9.759e-05,0.0,0 STARLINK-5000,1 53935U 22119BB  23064.91667824  .00009759  00000-0  65906-3 0  9997,2 53935  53.2185 186.0358 0001262  80.5190 120.2618 15.07192519 25722,6922.921,95.542,545.659,543.912,0.0
53935.0,STARLINK-5000,PAYLOAD,2023-03-06 17:48:11,15.07131147,0.0001608,53.2215,182.3421,107.359,252.7578,0.00060518,8.922e-05,0.0,0 STARLINK-5000,1 53935U 22119BB  23065.74180552  .00008922  00000-0  60518-3 0  9992,2 53935  53.2215 182.3421 0001608 107.3590 252.7578 15.07131147 25852,6923.109,95.546,546.087,543.86,0.0
53935.0,STARLINK-5000,PAYLOAD,2023-03-07 00:10:05,15.07282009,0.0002003,53.2202,181.1532,82.5355,277.5864,-0.001759,-0.00027014,0.0,0 STARLINK-5000,1 53935U 22119BB  23066.00700975 -.00027014  00000-0 -17590-2 0  9995,2 53935  53.2202 181.1532 0002003  82.5355 277.5864 15.07282009 25892,6922.647,95.536,545.898,543.125,0.0
53935.0,STARLINK-5000,PAYLOAD,2023-03-07 09:42:52,15.07347688,0.0001744,53.2182,179.3695,103.6777,256.4409,0.0012484,0.00018844,0.0,0 STARLINK-5000,1 53935U 22119BB  23066.40477226  .00018844  00000-0  12484-2 0  9995,2 53935  53.2182 179.3695 0001744 103.6777 256.4409 15.07347688 25955,6922.446,95.532,545.518,543.103,0.0
53935.0,STARLINK-5000,PAYLOAD,2023-03-08 00:01:55,15.07539253,0.0001838,53.2209,176.697,134.1995,225.9148,0.0024454,0.00037478,0.0,0 STARLINK-5000,1 53935U 22119BB  23067.00133528  .00037478  00000-0  24454-2 0  9990,2 53935  53.2209 176.6970 0001838 134.1995 225.9148 15.07539253 26049,6921.859,95.52,544.996,542.452,0.0
53935.0,STARLINK-5000,PAYLOAD,2023-03-08 19:06:39,15.08147839,0.0001287,53.2217,173.1291,101.8899,258.2238,0.0067797,0.00107208,0.0,0 STARLINK-5000,1 53935U 22119BB  23067.79628653  .00107208  00000-0  67797-2 0  9990,2 53935  53.2217 173.1291 0001287 101.8899 258.2238 15.08147839 26166,6919.997,95.481,542.752,540.971,0.0
53935.0,STARLINK-5000,PAYLOAD,2023-03-08 22:17:26,15.08218856,0.00018,53.2164,172.5344,140.1757,219.9368,0.0070091,0.00111123,0.0,0 STARLINK-5000,1 53935U 22119BB  23067.92878415  .00111123  00000-0  70091-2 0  9990,2 53935  53.2164 172.5344 0001800 140.1757 219.9368 15.08218856 26604,6919.78,95.477,542.89,540.399,0.0
53935.0,STARLINK-5000,PAYLOAD,2023-03-09 06:00:00,15.08805007,0.0001402,53.2185,171.096,93.8147,210.6878,0.0037252,0.00059442,0.0,0 STARLINK-5000,1 53935U 22119BB  23068.25001157  .00059442  00000-0  37252-2 0  9995,2 53935  53.2185 171.0960 0001402  93.8147 210.6878 15.08805007 26233,6917.987,95.44,540.822,538.882,0.0
53935.0,STARLINK-5000,PAYLOAD,2023-03-09 22:00:00,15.0884793,0.0001237,53.2179,168.1048,86.8544,240.7791,0.0019869,0.00031482,0.0,0 STARLINK-5000,1 53935U 22119BB  23068.91667824  .00031482  00000-0  19869-2 0  9995,2 53935  53.2179 168.1048 0001237  86.8544 240.7791 15.08847930 26339,6917.856,95.437,540.577,538.865,0.0
53935.0,STARLINK-5000,PAYLOAD,2023-03-10 00:00:00,15.08847192,0.0001247,53.2181,167.7302,90.7032,329.8332,0.0033309,0.00053133,0.0,0 STARLINK-5000,1 53935U 22119BB  23069.00001157  .00053133  00000-0  33309-2 0  9999,2 53935  53.2181 167.7302 0001247  90.7032 329.8332 15.08847192  1307,6917.858,95.437,540.586,538.861,0.0
53935.0,STARLINK-5000,PAYLOAD,2023-03-10 14:00:01,15.08947586,0.0001297,53.2178,165.1129,100.9043,249.9787,-0.013685,-0.00212352,0.0,0 STARLINK-5000,1 53935U 22119BB  23069.58334491 -.00212352  00000-0 -13685-1 0  9998,2 53935  53.2178 165.1129 0001297 100.9043 249.9787 15.08947586 26438,6917.552,95.431,540.314,538.519,0.0
53935.0,STARLINK-5000,PAYLOAD,2023-03-10 22:00:00,15.08796802,0.0001331,53.2176,163.6155,113.773,248.7412,0.0011716,0.00018385,0.0,0 STARLINK-5000,1 53935U 22119BB  23069.91667824  .00018385  00000-0  11716-2 0  9996,2 53935  53.2176 163.6155 0001331 113.7730 248.7412 15.08796802 26482,6918.012,95.44,540.798,538.957,0.0
53935.0,STARLINK-5000,PAYLOAD,2023-03-11 14:00:01,15.08868017,0.0001288,53.2176,160.6239,97.7807,287.9488,-0.0069221,-0.00108874,0.0,0 STARLINK-5000,1 53935U 22119BB  23070.58335648 -.00108874  00000-0 -69221-2 0  9996,2 53935  53.2176 160.6239 0001288  97.7807 287.9488 15.08868017 26586,6917.795,95.436,540.551,538.769,0.0
53935.0,STARLINK-5000,PAYLOAD,2023-03-11 22:00:00,15.08798499,0.0001195,53.2176,159.1265,93.0413,304.1975,0.00068224,0.00010574,0.0,0 STARLINK-5000,1 53935U 22119BB  23070.91667824  .00010574  00000-0  68224-3 0  9997,2 53935  53.2176 159.1265 0001195  93.0413 304.1975 15.08798499 26632,6918.007,95.44,540.699,539.046,0.0
53935.0,STARLINK-5000,PAYLOAD,2023-03-12 10:33:16,15.08835631,0.0001513,53.2206,156.778,96.8538,263.2626,-0.00013149,-2.38e-05,0.0,0 STARLINK-5000,1 53935U 22119BB  23071.43977926 -.00002380  00000-0 -13149-3 0  9996,2 53935  53.2206 156.7780 0001513  96.8538 263.2626 15.08835631 27138,6917.894,95.438,540.805,538.712,0.0
53935.0,STARLINK-5000,PAYLOAD,2023-03-12 12:08:39,15.08845695,0.0001517,53.2208,156.4809,102.7947,257.3214,-0.00021382,-3.69e-05,0.0,0 STARLINK-5000,1 53935U 22119BB  23071.50601528 -.00003690  00000-0 -21382-3 0  9999,2 53935  53.2208 156.4809 0001517 102.7947 257.3214 15.08845695 27143,6917.863,95.437,540.777,538.679,0.0
53935.0,STARLINK-5000,PAYLOAD,2023-03-13 07:13:16,15.08836247,0.0001437,53.2203,152.9133,113.0714,247.043,0.00022529,3.299e-05,0.0,0 STARLINK-5000,1 53935U 22119BB  23072.30089032  .00003299  00000-0  22529-3 0  9995,2 53935  53.2203 152.9133 0001437 113.0714 247.0430 15.08836247 27269,6917.892,95.438,540.751,538.763,0.0
53935.0,STARLINK-5000,PAYLOAD,2023-03-13 15:10:10,15.0889723,0.0002349,53.2216,151.4291,128.6189,231.5014,-0.00054375,-8.946e-05,0.0,0 STARLINK-5000,1 53935U 22119BB  23072.63206369 -.00008946  00000-0 -54375-3 0  9995,2 53935  53.2216 151.4291 0002349 128.6189 231.5014 15.08897230 26896,6917.705,95.434,541.195,537.945,0.0
53935.0,STARLINK-5000,PAYLOAD,2023-03-14 11:50:13,15.0884241,0.0001186,53.2189,147.5617,88.2868,271.826,8.9911e-05,1.143e-05,0.0,0 STARLINK-5000,1 53935U 22119BB  23073.49321399  .00001143  00000-0  89911-4 0  9996,2 53935  53.2189 147.5617 0001186  88.2868 271.8260 15.08842410 27022,6917.873,95.437,540.558,538.918,0.0
53935.0,STARLINK-5000,PAYLOAD,2023-03-14 21:22:32,15.08848997,0.0001337,53.2196,145.7785,83.0038,277.1106,0.00016388,2.322e-05,0.0,0 STARLINK-5000,1 53935U 22119BB  23073.89065019  .00002322  00000-0  16388-3 0  9991,2 53935  53.2196 145.7785 0001337  83.0038 277.1106 15.08848997 27503,6917.853,95.437,540.643,538.793,0.0
53935.0,STARLINK-5000,PAYLOAD,2023-03-15 03:44:04,15.08854345,0.0001163,53.2194,144.5885,87.4556,272.6569,4.4286e-05,4.17e-06,0.0,0 STARLINK-5000,1 53935U 22119BB  23074.15560475  .00000417  00000-0  44286-4 0  9999,2 53935  53.2194 144.5885 0001163  87.4556 272.6569 15.08854345 27124,6917.837,95.437,540.506,538.897,0.0
53935.0,STARLINK-5000,PAYLOAD,2023-03-15 10:05:37,15.08848989,0.0001817,53.2187,143.3995,71.5806,288.5384,0.00058366,9.015e-05,0.0,0 STARLINK-5000,1 53935U 22119BB  23074.42056801  .00009015  00000-0  58366-3 0  9998,2 53935  53.2187 143.3995 0001817  71.5806 288.5384 15.08848989 27581,6917.853,95.437,540.975,538.461,0.0
53935.0,STARLINK-5000,PAYLOAD,2023-03-15 21:13:18,15.08851832,0.0001346,53.2181,141.3159,80.6101,279.5043,0.00022584,3.309e-05,0.0,0 STARLINK-5000,1 53935U 22119BB  23074.88424181  .00003309  00000-0  22584-3 0  9991,2 53935  53.2181 141.3159 0001346  80.6101 279.5043 15.08851832 27652,6917.844,95.437,540.64,538.778,0.0
